{"type": "FeatureCollection", "features": [ {"type": "Feature", "properties": {"norad_id": 39620, "name": "COSMOS 2492 (754)", "group": "gnss", "lat": -61.92239905632195, "lon": -160.86358840082266, "alt_km": 19116.138427467722, "timestamp": "2025-12-19T22:41:52.634030+00:00", "meta": {"OBJECT_NAME": "COSMOS 2492 (754)", "OBJECT_ID": "2014-012A", "EPOCH": "2025-12-18T04:53:42.056736", "MEAN_MOTION": 2.13103354, "ECCENTRICITY": 0.0014217, "INCLINATION": 65.4043, "RA_OF_ASC_NODE": 320.0846, "ARG_OF_PERICENTER": 312.4931, "MEAN_ANOMALY": 47.3782, "EPHEMERIS_TYPE": 0, "CLASSIFICATION_TYPE": "U", "NORAD_CAT_ID": 39620, "ELEMENT_SET_NO": 999, "REV_AT_EPOCH": 9138, "BSTAR": 0, "MEAN_MOTION_DOT": -6.4e-07, "MEAN_MOTION_DDOT": 0}, "tle": {"line1": "1 39620U 14012A   25352.20395899 -.00000064  00000+0  00000+0 0  9999", "line2": "2 39620  65.4043 320.0846 0014217 312.4931  47.3782  2.13103354 91389"}}, "geometry": {"type": "Point", "coordinates": [-160.86358840082266, -61.92239905632195]}}, {"type": "Feature", "properties": {"norad_id": 39635, "name": "IRNSS-1B", "group": "gnss", "lat": -25.311703155947487, "lon": 121.10616570649091, "alt_km": 35711.24265138235, "timestamp": "2025-12-19T22:41:52.634043+00:00", "meta": {"OBJECT_NAME": "IRNSS-1B", "OBJECT_ID": "2014-017A", "EPOCH": "2025-12-18T18:41:36.288672", "MEAN_MOTION": 1.00270486, "ECCENTRICITY": 0.00188687, "INCLINATION": 29.2555, "RA_OF_ASC_NODE": 243.5019, "ARG_OF_PERICENTER": 250.2597, "MEAN_ANOMALY": 289.6629, "EPHEMERIS_TYPE": 0, "CLASSIFICATION_TYPE": "U", "NORAD_CAT_ID": 39635, "ELEMENT_SET_NO": 999, "REV_AT_EPOCH": 4298, "BSTAR": 0, "MEAN_MOTION_DOT": 1.5e-06, "MEAN_MOTION_DDOT": 0}, "tle": {"line1": "1 39635U 14017A   25352.77889223  .00000150  00000+0  00000+0 0  9996", "line2": "2 39635  29.2555 243.5019 0018868 250.2597 289.6629  1.00270486 42984"}}, "geometry": {"type": "Point", "coordinates": [121.10616570649091, -25.311703155947487]}}, {"type": "Feature", "properties": {"norad_id": 39727, "name": "LUCH 5V (SDCM/PRN 141)", "group": "gnss", "lat": 4.690990137264193, "lon": 163.8712173708029, "alt_km": 35796.212907363566, "timestamp": "2025-12-19T22:41:52.634072+00:00", "meta": {"OBJECT_NAME": "LUCH 5V (SDCM/PRN 141)", "OBJECT_ID": "2014-023A", "EPOCH": "2025-12-19T17:07:14.606400", "MEAN_MOTION": 1.00267053, "ECCENTRICITY": 0.000432, "INCLINATION": 4.6856, "RA_OF_ASC_NODE": 71.4767, "ARG_OF_PERICENTER": 213.4503, "MEAN_ANOMALY": 155.0982, "EPHEMERIS_TYPE": 0, "CLASSIFICATION_TYPE": "U", "NORAD_CAT_ID": 39727, "ELEMENT_SET_NO": 999, "REV_AT_EPOCH": 4256, "BSTAR": 0, "MEAN_MOTION_DOT": -2.47e-06, "MEAN_MOTION_DDOT": 0}, "tle": {"line1": "1 39727U 14023A   25353.71336350 -.00000247  00000+0  00000+0 0  9996", "line2": "2 39727   4.6856  71.4767 0004320 213.4503 155.0982  1.00267053 42569"}}, "geometry": {"type": "Point", "coordinates": [163.8712173708029, 4.690990137264193]}}, {"type": "Feature", "properties": {"norad_id": 39741, "name": "GPS BIIF-6  (PRN 06)", "group": "gnss", "lat": -16.252128330998488, "lon": -32.612691433589646, "alt_km": 20087.450674940796, "timestamp": "2025-12-19T22:41:52.634085+00:00", "meta": {"OBJECT_NAME": "GPS BIIF-6  (PRN 06)", "OBJECT_ID": "2014-026A", "EPOCH": "2025-12-18T23:24:45.525888", "MEAN_MOTION": 2.00561009, "ECCENTRICITY": 0.00393411, "INCLINATION": 56.5812, "RA_OF_ASC_NODE": 338.5339, "ARG_OF_PERICENTER": 319.0443, "MEAN_ANOMALY": 40.6665, "EPHEMERIS_TYPE": 0, "CLASSIFICATION_TYPE": "U", "NORAD_CAT_ID": 39741, "ELEMENT_SET_NO": 999, "REV_AT_EPOCH": 8492, "BSTAR": 0, "MEAN_MOTION_DOT": -8.1e-07, "MEAN_MOTION_DDOT": 0}, "tle": {"line1": "1 39741U 14026A   25352.97552692 -.00000081  00000+0  00000+0 0  9997", "line2": "2 39741  56.5812 338.5339 0039341 319.0443  40.6665  2.00561009 84924"}}, "geometry": {"type": "Point", "coordinates": [-32.612691433589646, -16.252128330998488]}}, {"type": "Feature", "properties": {"norad_id": 40001, "name": "COSMOS 2500 (755)", "group": "gnss", "lat": 48.801908520418046, "lon": 108.12947053749873, "alt_km": 19125.7919480683, "timestamp": "2025-12-19T22:41:52.634096+00:00", "meta": {"OBJECT_NAME": "COSMOS 2500 (755)", "OBJECT_ID": "2014-032A", "EPOCH": "2025-12-19T07:33:00.956160", "MEAN_MOTION": 2.13106226, "ECCENTRICITY": 0.0007806, "INCLINATION": 65.3396, "RA_OF_ASC_NODE": 319.8089, "ARG_OF_PERICENTER": 219.2703, "MEAN_ANOMALY": 140.6644, "EPHEMERIS_TYPE": 0, "CLASSIFICATION_TYPE": "U", "NORAD_CAT_ID": 40001, "ELEMENT_SET_NO": 999, "REV_AT_EPOCH": 8962, "BSTAR": 0, "MEAN_MOTION_DOT": -5.9e-07, "MEAN_MOTION_DDOT": 0}, "tle": {"line1": "1 40001U 14032A   25353.31459440 -.00000059  00000+0  00000+0 0  9996", "line2": "2 40001  65.3396 319.8089 0007806 219.2703 140.6644  2.13106226 89625"}}, "geometry": {"type": "Point", "coordinates": [108.12947053749873, 48.801908520418046]}}, {"type": "Feature", "properties": {"norad_id": 40105, "name": "GPS BIIF-7  (PRN 09)", "group": "gnss", "lat": -54.42721097265727, "lon": 19.729060314658454, "alt_km": 20267.28348815119, "timestamp": "2025-12-19T22:41:52.634108+00:00", "meta": {"OBJECT_NAME": "GPS BIIF-7  (PRN 09)", "OBJECT_ID": "2014-045A", "EPOCH": "2025-12-18T01:34:21.644256", "MEAN_MOTION": 2.00572958, "ECCENTRICITY": 0.00325491, "INCLINATION": 55.2322, "RA_OF_ASC_NODE": 95.6864, "ARG_OF_PERICENTER": 120.0469, "MEAN_ANOMALY": 240.2601, "EPHEMERIS_TYPE": 0, "CLASSIFICATION_TYPE": "U", "NORAD_CAT_ID": 40105, "ELEMENT_SET_NO": 999, "REV_AT_EPOCH": 8244, "BSTAR": 0, "MEAN_MOTION_DOT": -3.8e-07, "MEAN_MOTION_DDOT": 0}, "tle": {"line1": "1 40105U 14045A   25352.06552829 -.00000038  00000+0  00000+0 0  9998", "line2": "2 40105  55.2322  95.6864 0032549 120.0469 240.2601  2.00572958 82445"}}, "geometry": {"type": "Point", "coordinates": [19.729060314658454, -54.42721097265727]}}, {"type": "Feature", "properties": {"norad_id": 40128, "name": "GSAT0201 (GALILEO 5)", "group": "gnss", "lat": 4.1071225621172225, "lon": -75.67847562488416, "alt_km": 26056.11928895641, "timestamp": "2025-12-19T22:41:52.634119+00:00", "meta": {"OBJECT_NAME": "GSAT0201 (GALILEO 5)", "OBJECT_ID": "2014-050A", "EPOCH": "2025-12-14T00:08:14.916480", "MEAN_MOTION": 1.85519648, "ECCENTRICITY": 0.16480052, "INCLINATION": 49.0753, "RA_OF_ASC_NODE": 281.012, "ARG_OF_PERICENTER": 172.3262, "MEAN_ANOMALY": 190.5827, "EPHEMERIS_TYPE": 0, "CLASSIFICATION_TYPE": "U", "NORAD_CAT_ID": 40128, "ELEMENT_SET_NO": 999, "REV_AT_EPOCH": 7488, "BSTAR": 0, "MEAN_MOTION_DOT": -9.9e-07, "MEAN_MOTION_DDOT": 0}, "tle": {"line1": "1 40128U 14050A   25348.00572820 -.00000099  00000+0  00000+0 0  9998", "line2": "2 40128  49.0753 281.0120 1648005 172.3262 190.5827  1.85519648 74882"}}, "geometry": {"type": "Point", "coordinates": [-75.67847562488416, 4.1071225621172225]}}, {"type": "Feature", "properties": {"norad_id": 40129, "name": "GSAT0202 (GALILEO 6)", "group": "gnss", "lat": -21.41114562667275, "lon": 119.6875639334573, "alt_km": 17615.646983286697, "timestamp": "2025-12-19T22:41:52.634130+00:00", "meta": {"OBJECT_NAME": "GSAT0202 (GALILEO 6)", "OBJECT_ID": "2014-050B", "EPOCH": "2025-12-18T13:46:22.484640", "MEAN_MOTION": 1.85520466, "ECCENTRICITY": 0.16491259, "INCLINATION": 49.0858, "RA_OF_ASC_NODE": 279.9095, "ARG_OF_PERICENTER": 173.2442, "MEAN_ANOMALY": 189.3393, "EPHEMERIS_TYPE": 0, "CLASSIFICATION_TYPE": "U", "NORAD_CAT_ID": 40129, "ELEMENT_SET_NO": 999, "REV_AT_EPOCH": 7713, "BSTAR": 0, "MEAN_MOTION_DOT": -5.9e-07, "MEAN_MOTION_DDOT": 0}, "tle": {"line1": "1 40129U 14050B   25352.57387135 -.00000059  00000+0  00000+0 0  9995", "line2": "2 40129  49.0858 279.9095 1649125 173.2442 189.3393  1.85520466 77135"}}, "geometry": {"type": "Point", "coordinates": [119.6875639334573, -21.41114562667275]}}, {"type": "Feature", "properties": {"norad_id": 40269, "name": "IRNSS-1C", "group": "gnss", "lat": 5.257798839252673, "lon": 152.27500505216983, "alt_km": 35744.69430008069, "timestamp": "2025-12-19T22:41:52.634142+00:00", "meta": {"OBJECT_NAME": "IRNSS-1C", "OBJECT_ID": "2014-061A", "EPOCH": "2025-12-18T08:33:07.675776", "MEAN_MOTION": 1.00274321, "ECCENTRICITY": 0.00180573, "INCLINATION": 6.0557, "RA_OF_ASC_NODE": 92.5101, "ARG_OF_PERICENTER": 1.4373, "MEAN_ANOMALY": 204.5224, "EPHEMERIS_TYPE": 0, "CLASSIFICATION_TYPE": "U", "NORAD_CAT_ID": 40269, "ELEMENT_SET_NO": 999, "REV_AT_EPOCH": 4087, "BSTAR": 0, "MEAN_MOTION_DOT": -1.42e-06, "MEAN_MOTION_DDOT": 0}, "tle": {"line1": "1 40269U 14061A   25352.35633884 -.00000142  00000+0  00000+0 0  9996", "line2": "2 40269   6.0557  92.5101 0018057   1.4373 204.5224  1.00274321 40871"}}, "geometry": {"type": "Point", "coordinates": [152.27500505216983, 5.257798839252673]}}, {"type": "Feature", "properties": {"norad_id": 40294, "name": "GPS BIIF-8  (PRN 03)", "group": "gnss", "lat": 4.715317091750348, "lon": 40.97489555375958, "alt_km": 20108.398466041348, "timestamp": "2025-12-19T22:41:52.634156+00:00", "meta": {"OBJECT_NAME": "GPS BIIF-8  (PRN 03)", "OBJECT_ID": "2014-068A", "EPOCH": "2025-12-19T10:32:44.453760", "MEAN_MOTION": 2.00565341, "ECCENTRICITY": 0.0060808, "INCLINATION": 56.8627, "RA_OF_ASC_NODE": 37.8869, "ARG_OF_PERICENTER": 69.0507, "MEAN_ANOMALY": 291.6667, "EPHEMERIS_TYPE": 0, "CLASSIFICATION_TYPE": "U", "NORAD_CAT_ID": 40294, "ELEMENT_SET_NO": 999, "REV_AT_EPOCH": 8160, "BSTAR": 0, "MEAN_MOTION_DOT": -6.1e-07, "MEAN_MOTION_DDOT": 0}, "tle": {"line1": "1 40294U 14068A   25353.43940340 -.00000061  00000+0  00000+0 0  9999", "line2": "2 40294  56.8627  37.8869 0060808  69.0507 291.6667  2.00565341 81603"}}, "geometry": {"type": "Point", "coordinates": [40.97489555375958, 4.715317091750348]}}]}